OBJECT_NAME,OBJECT_ID,EPOCH,MEAN_MOTION,ECCENTRICITY,INCLINATION,RA_OF_ASC_NODE,ARG_OF_PERICENTER,MEAN_ANOMALY,EPHEMERIS_TYPE,CLASSIFICATION_TYPE,NORAD_CAT_ID,ELEMENT_SET_NO,REV_AT_EPOCH,BSTAR,MEAN_MOTION_DOT,MEAN_MOTION_DDOT
STARLINK-35891,2025-294R,2026-07-14T23:35:17.635200,15.27593328,.0001409,42.9999,39.4858,23.1028,336.9887,0,U,67045,999,3426,.46904E-3,.12672E-3,0
STARLINK-35721,2025-294S,2026-07-14T23:24:11.200896,15.27589506,.0001702,43.0011,39.4235,290.8514,69.2155,0,U,67046,999,3426,.59807E-3,.16237E-3,0
STARLINK-35779,2025-294T,2026-07-14T21:20:24.889344,15.27585150,.0002809,43.0070,39.6404,266.3453,93.7078,0,U,67047,999,3425,.38093E-3,.10237E-3,0
STARLINK-35905,2025-294U,2026-07-14T23:11:13.911072,15.27598253,.0001054,43.0029,39.3594,276.1593,83.9138,0,U,67048,999,3426,.48351E-3,.13074E-3,0
STARLINK-35877,2025-294V,2026-07-13T22:25:04.893024,15.27597844,.00014757,43.0004,45.3749,270.0881,89.9802,0,U,67049,999,3410,.54569193E-3,.14792E-3,0
STARLINK-36078,2025-294W,2026-07-14T22:37:55.498080,15.27577273,.000116,43.0034,39.1775,268.2804,91.7914,0,U,67050,999,3426,.33346E-3,.8924E-4,0
STARLINK-35706,2025-294X,2026-07-14T23:03:49.383936,15.27589796,.0001918,43.0045,39.3154,261.4049,98.6585,0,U,67051,999,3426,.3209E-3,.8581E-4,0
STARLINK-35720,2025-294Y,2026-07-14T22:52:43.319424,15.27583596,.0001553,43.0043,39.2576,260.2575,99.8102,0,U,67052,999,3426,.29848E-3,.7961E-4,0
STARLINK-35739,2025-294Z,2026-07-14T23:18:38.346624,15.27593297,.000092,42.9940,39.3996,27.7715,332.3185,0,U,67053,999,3426,.36772E-3,.9875E-4,0
STARLINK-35754,2025-294AA,2026-07-14T22:56:25.326816,15.27585409,.000258,43.0065,39.2776,266.4357,93.6200,0,U,67054,999,3426,.36106E-3,.9688E-4,0
STARLINK-35790,2025-294AB,2026-07-14T23:22:20.701344,15.27587416,.0001618,42.9972,39.4181,21.9480,338.1440,0,U,67055,999,3426,.41779E-3,.11255E-3,0
STARLINK-36143,2025-294AC,2026-07-14T13:24:03.618144,15.27624662,.0000892,43.0004,41.4562,270.6635,89.4114,0,U,67056,999,3420,.59503E-3,.1617E-3,0
STARLINK-36141,2025-294AD,2026-07-14T22:43:29.455680,15.27584486,.0001855,43.0039,39.2101,23.3771,336.7165,0,U,67057,999,3426,.46282E-3,.12497E-3,0
STARLINK-35767,2025-294AE,2026-07-14T23:33:26.800416,15.27592330,.000096,42.9944,39.4768,37.7878,322.3040,0,U,67058,999,3426,.35718E-3,.9583E-4,0
STARLINK-36230,2025-298A,2026-07-14T23:43:49.558656,14.98336143,.0002731,70.0010,53.5693,265.3787,94.7061,0,U,67075,999,3228,.31954E-4,.288E-5,0
STARLINK-36240,2025-298B,2026-07-15T01:07:56.241408,14.98335590,.0002407,70.0010,53.3721,264.3441,95.7443,0,U,67076,999,3229,.14592E-3,.1649E-4,0
STARLINK-36243,2025-298C,2026-07-15T00:07:51.424320,14.98332717,.0002734,70.0011,53.6288,265.7461,94.3386,0,U,67077,999,3228,-.89525E-4,-.1161E-4,0
STARLINK-36236,2025-298D,2026-07-14T23:55:51.036672,14.98340399,.0002743,70.0007,53.5980,264.7124,95.3722,0,U,67078,999,3228,.10084E-3,.1111E-4,0
STARLINK-36159,2025-298E,2026-07-15T00:25:51.825216,14.98337966,.0002448,70.0011,53.2808,258.3934,101.6950,0,U,67079,999,3229,.24637E-3,.2848E-4,0
STARLINK-36158,2025-298F,2026-07-15T00:19:36.874272,14.98334332,.0002908,70.0008,53.2584,268.1381,91.9445,0,U,67080,999,3229,.16783E-3,.191E-4,0
STARLINK-35864,2025-298G,2026-07-15T00:31:38.144928,14.98338823,.0002173,70.0005,53.2883,266.4842,93.6069,0,U,67081,999,3229,.20796E-3,.239E-4,0
STARLINK-36035,2025-298H,2026-07-15T00:43:39.710208,14.98333145,.0002362,69.9991,53.3173,268.8279,91.2610,0,U,67082,999,3229,-.79255E-4,-.1038E-4,0
STARLINK-36170,2025-298J,2026-07-14T23:43:35.383008,14.98345047,.000243,70.0006,53.5618,270.3276,89.7605,0,U,67083,999,3227,.22722E-3,.262E-4,0
STARLINK-36166,2025-298K,2026-07-15T00:01:37.194816,14.98334997,.0002171,70.0008,53.6083,279.4740,80.6173,0,U,67084,999,3228,.17239E-3,.1965E-4,0
STARLINK-35794,2025-298L,2026-07-15T00:55:40.789920,14.98331619,.0002696,70.0007,53.3461,263.5454,96.5398,0,U,67085,999,3229,.23245E-3,.2682E-4,0
STARLINK-35841,2025-298M,2026-07-15T01:25:44.050368,14.98335256,.0002018,70.0007,53.4088,263.4889,96.6040,0,U,67086,999,3229,.12427E-3,.139E-4,0
STARLINK-35842,2025-298N,2026-07-15T00:49:54.355296,14.98365483,.0002807,70.0012,53.3432,277.5103,82.5737,0,U,67087,999,3229,.72528E-3,.8579E-4,0
STARLINK-35882,2025-298P,2026-07-15T00:07:37.919136,14.98335205,.0002417,70.0005,53.6216,257.6310,102.4578,0,U,67088,999,3228,.20685E-3,.2376E-4,0
STARLINK-35763,2025-298Q,2026-07-15T00:13:52.857984,14.98334947,.000278,70.0008,53.6421,264.6991,95.3851,0,U,67089,999,3228,.20162E-3,.2314E-4,0
STARLINK-36060,2025-298R,2026-07-15T01:01:55.440192,14.98336122,.000299,70.0008,53.3563,266.8540,93.2277,0,U,67090,999,3229,.14896E-3,.1685E-4,0
