STARLINK-35891          
1 67045U 25294R   26195.98284300  .00012672  00000+0  46904-3 0  9994
2 67045  42.9999  39.4858 0001409  23.1028 336.9887 15.27593328 34267
STARLINK-35721          
1 67046U 25294S   26195.97512964  .00016237  00000+0  59807-3 0  9991
2 67046  43.0011  39.4235 0001702 290.8514  69.2155 15.27589506 34260
STARLINK-35779          
1 67047U 25294T   26195.88917696  .00010237  00000+0  38093-3 0  9991
2 67047  43.0070  39.6404 0002809 266.3453  93.7078 15.27585150 34251
STARLINK-35905          
1 67048U 25294U   26195.96613323  .00013074  00000+0  48351-3 0  9991
2 67048  43.0029  39.3594 0001054 276.1593  83.9138 15.27598253 34265
STARLINK-35877          
1 67049U 25294V   26194.93408441  .00014792  00000+0  54569-3 0  9997
2 67049  43.0004  45.3749 0001475 270.0881  89.9802 15.27597844 34100
STARLINK-36078          
1 67050U 25294W   26195.94300345  .00008924  00000+0  33346-3 0  9995
2 67050  43.0034  39.1775 0001160 268.2804  91.7914 15.27577273 34266
STARLINK-35706          
1 67051U 25294X   26195.96098824  .00008581  00000+0  32090-3 0  9998
2 67051  43.0045  39.3154 0001918 261.4049  98.6585 15.27589796 34262
STARLINK-35720          
1 67052U 25294Y   26195.95327916  .00007961  00000+0  29848-3 0  9993
2 67052  43.0043  39.2576 0001553 260.2575  99.8102 15.27583596 34264
STARLINK-35739          
1 67053U 25294Z   26195.97127716  .00009875  00000+0  36772-3 0  9992
2 67053  42.9940  39.3996 0000920  27.7715 332.3185 15.27593297 34260
STARLINK-35754          
1 67054U 25294AA  26195.95584869  .00009688  00000+0  36106-3 0  9990
2 67054  43.0065  39.2776 0002580 266.4357  93.6200 15.27585409 34265
STARLINK-35790          
1 67055U 25294AB  26195.97385071  .00011255  00000+0  41779-3 0  9992
2 67055  42.9972  39.4181 0001618  21.9480 338.1440 15.27587416 34268
STARLINK-36143          
1 67056U 25294AC  26195.55837521  .00016170  00000+0  59503-3 0  9994
2 67056  43.0004  41.4562 0000892 270.6635  89.4114 15.27624662 34204
STARLINK-36141          
1 67057U 25294AD  26195.94686870  .00012497  00000+0  46282-3 0  9995
2 67057  43.0039  39.2101 0001855  23.3771 336.7165 15.27584486 34260
STARLINK-35767          
1 67058U 25294AE  26195.98156019  .00009583  00000+0  35718-3 0  9991
2 67058  42.9944  39.4768 0000960  37.7878 322.3040 15.27592330 34268
STARLINK-36230          
1 67075U 25298A   26195.98876804  .00000288  00000+0  31954-4 0  9997
2 67075  70.0010  53.5693 0002731 265.3787  94.7061 14.98336143 32281
STARLINK-36240          
1 67076U 25298B   26196.04717872  .00001649  00000+0  14592-3 0  9995
2 67076  70.0010  53.3721 0002407 264.3441  95.7443 14.98335590 32299
STARLINK-36243          
1 67077U 25298C   26196.00545630 -.00001161  00000+0 -89525-4 0  9993
2 67077  70.0011  53.6288 0002734 265.7461  94.3386 14.98332717 32280
STARLINK-36236          
1 67078U 25298D   26195.99711848  .00001111  00000+0  10084-3 0  9993
2 67078  70.0007  53.5980 0002743 264.7124  95.3722 14.98340399 32289
STARLINK-36159          
1 67079U 25298E   26196.01796094  .00002848  00000+0  24637-3 0  9991
2 67079  70.0011  53.2808 0002448 258.3934 101.6950 14.98337966 32292
STARLINK-36158          
1 67080U 25298F   26196.01362123  .00001910  00000+0  16783-3 0  9997
2 67080  70.0008  53.2584 0002908 268.1381  91.9445 14.98334332 32291
STARLINK-35864          
1 67081U 25298G   26196.02196927  .00002390  00000+0  20796-3 0  9998
2 67081  70.0005  53.2883 0002173 266.4842  93.6069 14.98338823 32298
STARLINK-36035          
1 67082U 25298H   26196.03032072 -.00001038  00000+0 -79255-4 0  9995
2 67082  69.9991  53.3173 0002362 268.8279  91.2610 14.98333145 32291
STARLINK-36170          
1 67083U 25298J   26195.98860397  .00002620  00000+0  22722-3 0  9990
2 67083  70.0006  53.5618 0002430 270.3276  89.7605 14.98345047 32277
STARLINK-36166          
1 67084U 25298K   26196.00112494  .00001965  00000+0  17239-3 0  9991
2 67084  70.0008  53.6083 0002171 279.4740  80.6173 14.98334997 32288
STARLINK-35794          
1 67085U 25298L   26196.03866655  .00002682  00000+0  23245-3 0  9991
2 67085  70.0007  53.3461 0002696 263.5454  96.5398 14.98331619 32297
STARLINK-35841          
1 67086U 25298M   26196.05953762  .00001390  00000+0  12427-3 0  9995
2 67086  70.0007  53.4088 0002018 263.4889  96.6040 14.98335256 32299
STARLINK-35842          
1 67087U 25298N   26196.03465689  .00008579  00000+0  72528-3 0  9994
2 67087  70.0012  53.3432 0002807 277.5103  82.5737 14.98365483 32291
STARLINK-35882          
1 67088U 25298P   26196.00529999  .00002376  00000+0  20685-3 0  9993
2 67088  70.0005  53.6216 0002417 257.6310 102.4578 14.98335205 32286
STARLINK-35763          
1 67089U 25298Q   26196.00963956  .00002314  00000+0  20162-3 0  9991
2 67089  70.0008  53.6421 0002780 264.6991  95.3851 14.98334947 32280
STARLINK-36060          
1 67090U 25298R   26196.04300278  .00001685  00000+0  14896-3 0  9996
2 67090  70.0008  53.3563 0002990 266.8540  93.2277 14.98336122 32290
